OBJECT_NAME,OBJECT_ID,EPOCH,MEAN_MOTION,ECCENTRICITY,INCLINATION,RA_OF_ASC_NODE,ARG_OF_PERICENTER,MEAN_ANOMALY,EPHEMERIS_TYPE,CLASSIFICATION_TYPE,NORAD_CAT_ID,ELEMENT_SET_NO,REV_AT_EPOCH,BSTAR,MEAN_MOTION_DOT,MEAN_MOTION_DDOT
ONEWEB-0309,2021-075W,2026-07-18T10:48:56.938464,13.17650028,.00023809,87.9151,359.6430,92.6318,267.5086,0,U,49095,999,23769,-.23534699E-3,-.78E-6,0
ONEWEB-0310,2021-075X,2026-07-17T23:01:13.714464,13.12442890,.00018699,87.8967,344.5604,97.6604,262.4737,0,U,49096,999,23922,-.71046296E-3,-.243E-5,0
ONEWEB-0311,2021-075Y,2026-07-18T10:58:40.992960,13.17648547,.00016641,87.9149,359.6420,80.2381,279.8939,0,U,49097,999,23774,.3928901E-4,.28E-6,0
ONEWEB-0312,2021-075Z,2026-07-18T09:31:12.733824,13.17648797,.00019945,87.9149,359.6640,84.9392,275.1967,0,U,49098,999,23771,-.10760299E-3,-.29E-6,0
ONEWEB-0313,2021-075AA,2026-07-18T04:10:14.411424,13.17648987,.00018188,87.9145,359.7138,89.5596,270.5744,0,U,49099,999,23767,-.43454975E-3,-.156E-5,0
ONEWEB-0314,2021-075AB,2026-07-18T16:07:16.264128,13.17649113,.00020175,87.9159,359.5910,82.9480,277.1881,0,U,49100,999,23771,-.42681747E-3,-.153E-5,0
ONEWEB-0315,2021-075AC,2026-07-18T09:20:54.129696,13.12442794,.00015571,87.8974,344.4419,88.0055,272.1251,0,U,49101,999,23926,.12754257E-2,.472E-5,0
ONEWEB-0316,2021-075AD,2026-07-18T15:32:41.018208,13.18687270,.00019619,87.9195,329.2003,99.7767,260.3587,0,U,49102,999,24135,-.78095861E-4,-.18E-6,0
ONEWEB-0317,2021-075AE,2026-07-18T09:25:46.930656,13.12443131,.00025114,87.8969,344.4647,105.2007,254.9399,0,U,49103,999,23928,.12425492E-2,.46E-5,0
ONEWEB-0318,2021-075AF,2026-07-18T08:10:34.905792,13.18686435,.000178,87.9198,329.2634,93.9353,266.1982,0,U,49104,999,24127,.83611775E-4,.46E-6,0
ONEWEB-0319,2021-075AG,2026-07-18T00:05:01.361472,13.17648177,.0001466,87.9147,359.7373,80.8041,279.3256,0,U,49105,999,23766,-.3547288E-4,-.1E-7,0
ONEWEB-0323,2021-075AH,2026-07-17T22:00:15.101280,13.12443881,.00015703,87.8974,344.5410,79.9999,280.1307,0,U,49106,999,23858,.48779101E-3,.188E-5,0
ONEWEB-0329,2021-075AJ,2026-07-18T00:17:09.548448,13.17647676,.00019208,87.9150,359.7367,88.6437,271.4915,0,U,49107,999,23764,-.18831661E-3,-.6E-6,0
ONEWEB-0330,2021-075AK,2026-07-18T09:28:57.305280,13.17647279,.00020008,87.9151,359.6719,89.1110,271.0251,0,U,49108,999,23773,.24808829E-4,.23E-6,0
ONEWEB-0292,2021-083A,2026-07-18T13:13:02.633952,13.13470257,.00018177,87.8981,313.9965,98.7314,261.4021,0,U,49186,999,23504,.71250959E-3,.273E-5,0
ONEWEB-0303,2021-083B,2026-07-18T08:05:43.119168,13.18684077,.00017972,87.9196,329.2625,94.8265,265.3073,0,U,49187,999,23408,-.4922598E-5,.11E-6,0
ONEWEB-0306,2021-083C,2026-07-18T15:08:12.557760,13.18686912,.00020929,87.9199,329.1931,100.8371,259.2997,0,U,49188,999,23416,.6722133E-3,.278E-5,0
ONEWEB-0307,2021-083D,2026-07-18T07:35:25.253664,13.13468667,.00018987,87.8982,314.0409,96.6770,263.4575,0,U,49189,999,23501,.9092967E-3,.345E-5,0
ONEWEB-0320,2021-083E,2026-07-18T08:20:16.398528,13.18686475,.00019591,87.9192,329.2642,99.4542,260.6812,0,U,49190,999,23408,-.35356073E-3,-.126E-5,0
ONEWEB-0321,2021-083F,2026-07-18T11:43:34.540608,13.20771715,.00021501,87.9179,268.1973,103.8674,256.2699,0,U,49191,999,24096,-.61813457E-3,-.238E-5,0
ONEWEB-0322,2021-083G,2026-07-18T07:29:20.503104,13.13470522,.00021002,87.8978,314.0415,111.4384,248.6970,0,U,49192,999,23500,.99667075E-3,.377E-5,0
ONEWEB-0324,2021-083H,2026-07-18T14:58:29.918496,13.18687086,.00020603,87.9203,329.1998,95.3720,264.7647,0,U,49193,999,23414,.19364418E-3,.89E-6,0
ONEWEB-0325,2021-083J,2026-07-18T15:03:20.372832,13.18687354,.00018269,87.9193,329.2049,100.0191,260.1147,0,U,49194,999,23415,-.15325387E-4,.7E-7,0
ONEWEB-0326,2021-083K,2026-07-18T08:08:22.303392,13.18686204,.00016508,87.9200,329.2623,94.6996,265.4325,0,U,49195,999,23410,.7535559E-4,.43E-6,0
ONEWEB-0327,2021-083L,2026-07-18T15:25:01.023744,13.18686519,.00014894,87.9192,329.2038,97.5137,262.6165,0,U,49196,999,23416,.85357542E-4,.47E-6,0
ONEWEB-0328,2021-083M,2026-07-18T07:14:42.914976,13.13470222,.00020508,87.8988,314.0197,96.7220,263.4142,0,U,49197,999,23498,.91765453E-3,.348E-5,0
ONEWEB-0331,2021-083N,2026-07-18T02:30:39.609504,13.18684190,.00016908,87.9202,329.3029,89.9526,270.1800,0,U,49198,999,23408,.1070046E-5,.13E-6,0
ONEWEB-0333,2021-083P,2026-07-18T07:07:24.000384,13.13470395,.0001889,87.8984,314.0439,99.8373,260.2970,0,U,49199,999,23499,.60338403E-3,.233E-5,0
ONEWEB-0334,2021-083Q,2026-07-18T06:36:54.373248,13.20769353,.00025418,87.9184,268.2499,114.5447,245.5952,0,U,49200,999,24089,-.52695753E-4,-.8E-7,0
ONEWEB-0335,2021-083R,2026-07-18T07:00:05.088384,13.13469385,.00018213,87.8980,314.0424,95.7639,264.3698,0,U,49201,999,23500,.26147632E-3,.108E-5,0
