ONEWEB-0309             
1 49095U 21075W   26199.45065901 -.00000078  00000+0 -23535-3 0  9996
2 49095  87.9151 359.6430 0002380  92.6318 267.5086 13.17650028237696
ONEWEB-0310             
1 49096U 21075X   26198.95918651 -.00000243  00000+0 -71046-3 0  9994
2 49096  87.8967 344.5604 0001869  97.6604 262.4737 13.12442890239220
ONEWEB-0311             
1 49097U 21075Y   26199.45741890  .00000028  00000+0  39289-4 0  9993
2 49097  87.9149 359.6420 0001664  80.2381 279.8939 13.17648547237743
ONEWEB-0312             
1 49098U 21075Z   26199.39667516 -.00000029  00000+0 -10760-3 0  9994
2 49098  87.9149 359.6640 0001994  84.9392 275.1967 13.17648797237711
ONEWEB-0313             
1 49099U 21075AA  26199.17377791 -.00000156  00000+0 -43455-3 0  9992
2 49099  87.9145 359.7138 0001818  89.5596 270.5744 13.17648987237671
ONEWEB-0314             
1 49100U 21075AB  26199.67171602 -.00000153  00000+0 -42682-3 0  9991
2 49100  87.9159 359.5910 0002017  82.9480 277.1881 13.17649113237718
ONEWEB-0315             
1 49101U 21075AC  26199.38951539  .00000472  00000+0  12754-2 0  9993
2 49101  87.8974 344.4419 0001557  88.0055 272.1251 13.12442794239262
ONEWEB-0316             
1 49102U 21075AD  26199.64769697 -.00000018  00000+0 -78096-4 0  9996
2 49102  87.9195 329.2003 0001961  99.7767 260.3587 13.18687270241357
ONEWEB-0317             
1 49103U 21075AE  26199.39290429  .00000460  00000+0  12425-2 0  9992
2 49103  87.8969 344.4647 0002511 105.2007 254.9399 13.12443131239280
ONEWEB-0318             
1 49104U 21075AF  26199.34068178  .00000046  00000+0  83612-4 0  9990
2 49104  87.9198 329.2634 0001780  93.9353 266.1982 13.18686435241274
ONEWEB-0319             
1 49105U 21075AG  26199.00348798 -.00000001  00000+0 -35473-4 0  9998
2 49105  87.9147 359.7373 0001466  80.8041 279.3256 13.17648177237665
ONEWEB-0323             
1 49106U 21075AH  26198.91684145  .00000188  00000+0  48779-3 0  9993
2 49106  87.8974 344.5410 0001570  79.9999 280.1307 13.12443881238583
ONEWEB-0329             
1 49107U 21075AJ  26199.01191607 -.00000060  00000+0 -18832-3 0  9990
2 49107  87.9150 359.7367 0001920  88.6437 271.4915 13.17647676237640
ONEWEB-0330             
1 49108U 21075AK  26199.39510770  .00000023  00000+0  24809-4 0  9997
2 49108  87.9151 359.6719 0002000  89.1110 271.0251 13.17647279237734
ONEWEB-0292             
1 49186U 21083A   26199.55072493  .00000273  00000+0  71251-3 0  9994
2 49186  87.8981 313.9965 0001817  98.7314 261.4021 13.13470257235049
ONEWEB-0303             
1 49187U 21083B   26199.33730462  .00000011  00000+0 -49226-5 0  9998
2 49187  87.9196 329.2625 0001797  94.8265 265.3073 13.18684077234086
ONEWEB-0306             
1 49188U 21083C   26199.63070090  .00000278  00000+0  67221-3 0  9993
2 49188  87.9199 329.1931 0002092 100.8371 259.2997 13.18686912234160
ONEWEB-0307             
1 49189U 21083D   26199.31626451  .00000345  00000+0  90930-3 0  9995
2 49189  87.8982 314.0409 0001898  96.6770 263.4575 13.13468667235015
ONEWEB-0320             
1 49190U 21083E   26199.34741202 -.00000126  00000+0 -35356-3 0  9992
2 49190  87.9192 329.2642 0001959  99.4542 260.6812 13.18686475234087
ONEWEB-0321             
1 49191U 21083F   26199.48859422 -.00000238  00000+0 -61813-3 0  9993
2 49191  87.9179 268.1973 0002150 103.8674 256.2699 13.20771715240964
ONEWEB-0322             
1 49192U 21083G   26199.31204286  .00000377  00000+0  99667-3 0  9998
2 49192  87.8978 314.0415 0002100 111.4384 248.6970 13.13470522235001
ONEWEB-0324             
1 49193U 21083H   26199.62395739  .00000089  00000+0  19364-3 0  9993
2 49193  87.9203 329.1998 0002060  95.3720 264.7647 13.18687086234140
ONEWEB-0325             
1 49194U 21083J   26199.62731913  .00000007  00000+0 -15325-4 0  9997
2 49194  87.9193 329.2049 0001826 100.0191 260.1147 13.18687354234156
ONEWEB-0326             
1 49195U 21083K   26199.33914703  .00000043  00000+0  75356-4 0  9995
2 49195  87.9200 329.2623 0001650  94.6996 265.4325 13.18686204234104
ONEWEB-0327             
1 49196U 21083L   26199.64237296  .00000047  00000+0  85358-4 0  9992
2 49196  87.9192 329.2038 0001489  97.5137 262.6165 13.18686519234160
ONEWEB-0328             
1 49197U 21083M   26199.30188559  .00000348  00000+0  91765-3 0  9995
2 49197  87.8988 314.0197 0002050  96.7220 263.4142 13.13470222234981
ONEWEB-0331             
1 49198U 21083N   26199.10462511  .00000013  00000+0  10700-5 0  9998
2 49198  87.9202 329.3029 0001690  89.9526 270.1800 13.18684190234080
ONEWEB-0333             
1 49199U 21083P   26199.29680556  .00000233  00000+0  60338-3 0  9994
2 49199  87.8984 314.0439 0001889  99.8373 260.2970 13.13470395234996
ONEWEB-0334             
1 49200U 21083Q   26199.27562932 -.00000008  00000+0 -52696-4 0  9993
2 49200  87.9184 268.2499 0002541 114.5447 245.5952 13.20769353240896
ONEWEB-0335             
1 49201U 21083R   26199.29172556  .00000108  00000+0  26148-3 0  9996
2 49201  87.8980 314.0424 0001821  95.7639 264.3698 13.13469385235008
